ONEWEB-0627             
1 55168U 23004AE  26048.00694601 -.00000003  00000+0 -39868-4 0  9992
2 55168  87.9115  29.7461 0002258  75.2918 284.8464 13.17648729151759
ONEWEB-0628             
1 55169U 23004AF  26047.95030707  .00000066  00000+0  14940-3 0  9997
2 55169  87.8973  14.5148 0002137  62.7929 297.3417 13.12444472152262
ONEWEB-0629             
1 55170U 23004AG  26047.98247638 -.00000014  00000+0 -70511-4 0  9997
2 55170  87.9112  29.7490 0001704  74.3211 285.8108 13.17649023151756
ONEWEB-0631             
1 55171U 23004AH  26047.91277295 -.00000076  00000+0 -22460-3 0  9990
2 55171  87.9239 359.3123 0002356  87.7719 272.3683 13.18684053153829
ONEWEB-0709             
1 55172U 23004AJ  26048.03693428 -.00000069  00000+0 -23082-3 0  9998
2 55172  87.8830  44.9833 0002300 109.0300 251.1077 13.11418607150129
ONEWEB-0710             
1 55173U 23004AK  26047.99682082  .00002224  00000+0  56947-2 0  9995
2 55173  87.9112  29.7408 0002135  80.6852 279.4521 13.17638195151754
ONEWEB-0711             
1 55174U 23004AL  26048.00809648 -.00000322  00000+0 -94467-3 0  9997
2 55174  87.8832  44.9692 0002435  73.2842 286.8553 13.11414536150084
ONEWEB-0713             
1 55175U 23004AM  26048.10304190 -.00000596  00000+0 -17166-2 0  9994
2 55175  87.8834  44.9505 0002138  77.8300 282.3068 13.11419202150086
ONEWEB-0715             
1 55176U 23004AN  26048.02166646 -.00000521  00000+0 -15056-2 0  9992
2 55176  87.8835  44.9665 0002481  97.0898 263.0512 13.11417788150113
ONEWEB-0716             
1 55177U 23004AP  26047.99007429 -.00000015  00000+0 -70931-4 0  9994
2 55177  87.9114  29.7417 0001680  87.2780 272.8544 13.17646523151753
ONEWEB-0717             
1 55178U 23004AQ  26047.97319515  .00000029  00000+0  41662-4 0  9997
2 55178  87.9123  29.7231 0002529  74.7608 285.3803 13.17647886151807
ONEWEB-0719             
1 55179U 23004AR  26047.98333708  .00000031  00000+0  47885-4 0  9995
2 55179  87.9121  29.7028 0001754  81.1610 278.9720 13.17649620151752
ONEWEB-0530             
1 55796U 23029A   26048.16744668  .00000080  00000+0  16498-3 0  9998
2 55796  87.9196 298.4379 0001915  63.5521 296.5808 13.20770484145301
ONEWEB-0534             
1 55797U 23029B   26048.15482079  .00000090  00000+0  18891-3 0  9993
2 55797  87.9197 298.4392 0001521  80.5419 279.5887 13.20770689145301
ONEWEB-0556             
1 55798U 23029C   26048.16112962  .00000089  00000+0  18780-3 0  9991
2 55798  87.9198 298.4403 0000956  53.7719 306.3502 13.20769939145301
ONEWEB-0562             
1 55799U 23029D   26048.14850850  .00000087  00000+0  18177-3 0  9993
2 55799  87.9195 298.4230 0001813  51.7234 308.4062 13.20770807145300
ONEWEB-0563             
1 55800U 23029E   26048.14219387  .00000082  00000+0  16942-3 0  9993
2 55800  87.9198 298.4546 0001383  83.6002 276.5289 13.20770769145296
