[{"OBJECT_NAME":"ONEWEB-0627","OBJECT_ID":"2023-004AE","EPOCH":"2026-02-17T00:10:00.135264","MEAN_MOTION":13.17648729,"ECCENTRICITY":0.0002258,"INCLINATION":87.9115,"RA_OF_ASC_NODE":29.7461,"ARG_OF_PERICENTER":75.2918,"MEAN_ANOMALY":284.8464,"EPHEMERIS_TYPE":0,"CLASSIFICATION_TYPE":"U","NORAD_CAT_ID":55168,"ELEMENT_SET_NO":999,"REV_AT_EPOCH":15175,"BSTAR":-3.9868e-5,"MEAN_MOTION_DOT":-3.0e-8,"MEAN_MOTION_DDOT":0},{"OBJECT_NAME":"ONEWEB-0628","OBJECT_ID":"2023-004AF","EPOCH":"2026-02-16T22:48:26.530848","MEAN_MOTION":13.12444472,"ECCENTRICITY":0.0002137,"INCLINATION":87.8973,"RA_OF_ASC_NODE":14.5148,"ARG_OF_PERICENTER":62.7929,"MEAN_ANOMALY":297.3417,"EPHEMERIS_TYPE":0,"CLASSIFICATION_TYPE":"U","NORAD_CAT_ID":55169,"ELEMENT_SET_NO":999,"REV_AT_EPOCH":15226,"BSTAR":0.0001494,"MEAN_MOTION_DOT":6.6e-7,"MEAN_MOTION_DDOT":0},{"OBJECT_NAME":"ONEWEB-0629","OBJECT_ID":"2023-004AG","EPOCH":"2026-02-16T23:34:45.959232","MEAN_MOTION":13.17649023,"ECCENTRICITY":0.0001704,"INCLINATION":87.9112,"RA_OF_ASC_NODE":29.749,"ARG_OF_PERICENTER":74.3211,"MEAN_ANOMALY":285.8108,"EPHEMERIS_TYPE":0,"CLASSIFICATION_TYPE":"U","NORAD_CAT_ID":55170,"ELEMENT_SET_NO":999,"REV_AT_EPOCH":15175,"BSTAR":-7.0511e-5,"MEAN_MOTION_DOT":-1.4e-7,"MEAN_MOTION_DDOT":0},{"OBJECT_NAME":"ONEWEB-0631","OBJECT_ID":"2023-004AH","EPOCH":"2026-02-16T21:54:23.582880","MEAN_MOTION":13.18684053,"ECCENTRICITY":0.0002356,"INCLINATION":87.9239,"RA_OF_ASC_NODE":359.3123,"ARG_OF_PERICENTER":87.7719,"MEAN_ANOMALY":272.3683,"EPHEMERIS_TYPE":0,"CLASSIFICATION_TYPE":"U","NORAD_CAT_ID":55171,"ELEMENT_SET_NO":999,"REV_AT_EPOCH":15382,"BSTAR":-0.0002246,"MEAN_MOTION_DOT":-7.6e-7,"MEAN_MOTION_DDOT":0},{"OBJECT_NAME":"ONEWEB-0709","OBJECT_ID":"2023-004AJ","EPOCH":"2026-02-17T00:53:11.121792","MEAN_MOTION":13.11418607,"ECCENTRICITY":0.00023,"INCLINATION":87.883,"RA_OF_ASC_NODE":44.9833,"ARG_OF_PERICENTER":109.03,"MEAN_ANOMALY":251.1077,"EPHEMERIS_TYPE":0,"CLASSIFICATION_TYPE":"U","NORAD_CAT_ID":55172,"ELEMENT_SET_NO":999,"REV_AT_EPOCH":15012,"BSTAR":-0.00023082,"MEAN_MOTION_DOT":-6.9e-7,"MEAN_MOTION_DDOT":0},{"OBJECT_NAME":"ONEWEB-0710","OBJECT_ID":"2023-004AK","EPOCH":"2026-02-16T23:55:25.318848","MEAN_MOTION":13.17638195,"ECCENTRICITY":0.0002135,"INCLINATION":87.9112,"RA_OF_ASC_NODE":29.7408,"ARG_OF_PERICENTER":80.6852,"MEAN_ANOMALY":279.4521,"EPHEMERIS_TYPE":0,"CLASSIFICATION_TYPE":"U","NORAD_CAT_ID":55173,"ELEMENT_SET_NO":999,"REV_AT_EPOCH":15175,"BSTAR":0.0056947,"MEAN_MOTION_DOT":2.224e-5,"MEAN_MOTION_DDOT":0},{"OBJECT_NAME":"ONEWEB-0711","OBJECT_ID":"2023-004AL","EPOCH":"2026-02-17T00:11:39.535872","MEAN_MOTION":13.11414536,"ECCENTRICITY":0.0002435,"INCLINATION":87.8832,"RA_OF_ASC_NODE":44.9692,"ARG_OF_PERICENTER":73.2842,"MEAN_ANOMALY":286.8553,"EPHEMERIS_TYPE":0,"CLASSIFICATION_TYPE":"U","NORAD_CAT_ID":55174,"ELEMENT_SET_NO":999,"REV_AT_EPOCH":15008,"BSTAR":-0.00094467,"MEAN_MOTION_DOT":-3.22e-6,"MEAN_MOTION_DDOT":0},{"OBJECT_NAME":"ONEWEB-0713","OBJECT_ID":"2023-004AM","EPOCH":"2026-02-17T02:28:22.820160","MEAN_MOTION":13.11419202,"ECCENTRICITY":0.0002138,"INCLINATION":87.8834,"RA_OF_ASC_NODE":44.9505,"ARG_OF_PERICENTER":77.83,"MEAN_ANOMALY":282.3068,"EPHEMERIS_TYPE":0,"CLASSIFICATION_TYPE":"U","NORAD_CAT_ID":55175,"ELEMENT_SET_NO":999,"REV_AT_EPOCH":15008,"BSTAR":-0.0017166,"MEAN_MOTION_DOT":-5.96e-6,"MEAN_MOTION_DDOT":0},{"OBJECT_NAME":"ONEWEB-0715","OBJECT_ID":"2023-004AN","EPOCH":"2026-02-17T00:31:11.982144","MEAN_MOTION":13.11417788,"ECCENTRICITY":0.0002481,"INCLINATION":87.8835,"RA_OF_ASC_NODE":44.9665,"ARG_OF_PERICENTER":97.0898,"MEAN_ANOMALY":263.0512,"EPHEMERIS_TYPE":0,"CLASSIFICATION_TYPE":"U","NORAD_CAT_ID":55176,"ELEMENT_SET_NO":999,"REV_AT_EPOCH":15011,"BSTAR":-0.0015056,"MEAN_MOTION_DOT":-5.21e-6,"MEAN_MOTION_DDOT":0},{"OBJECT_NAME":"ONEWEB-0716","OBJECT_ID":"2023-004AP","EPOCH":"2026-02-16T23:45:42.418656","MEAN_MOTION":13.17646523,"ECCENTRICITY":0.000168,"INCLINATION":87.9114,"RA_OF_ASC_NODE":29.7417,"ARG_OF_PERICENTER":87.278,"MEAN_ANOMALY":272.8544,"EPHEMERIS_TYPE":0,"CLASSIFICATION_TYPE":"U","NORAD_CAT_ID":55177,"ELEMENT_SET_NO":999,"REV_AT_EPOCH":15175,"BSTAR":-7.0931e-5,"MEAN_MOTION_DOT":-1.5e-7,"MEAN_MOTION_DDOT":0},{"OBJECT_NAME":"ONEWEB-0717","OBJECT_ID":"2023-004AQ","EPOCH":"2026-02-16T23:21:24.060960","MEAN_MOTION":13.17647886,"ECCENTRICITY":0.0002529,"INCLINATION":87.9123,"RA_OF_ASC_NODE":29.7231,"ARG_OF_PERICENTER":74.7608,"MEAN_ANOMALY":285.3803,"EPHEMERIS_TYPE":0,"CLASSIFICATION_TYPE":"U","NORAD_CAT_ID":55178,"ELEMENT_SET_NO":999,"REV_AT_EPOCH":15180,"BSTAR":4.1662e-5,"MEAN_MOTION_DOT":2.9e-7,"MEAN_MOTION_DDOT":0},{"OBJECT_NAME":"ONEWEB-0719","OBJECT_ID":"2023-004AR","EPOCH":"2026-02-16T23:36:00.323712","MEAN_MOTION":13.1764962,"ECCENTRICITY":0.0001754,"INCLINATION":87.9121,"RA_OF_ASC_NODE":29.7028,"ARG_OF_PERICENTER":81.161,"MEAN_ANOMALY":278.972,"EPHEMERIS_TYPE":0,"CLASSIFICATION_TYPE":"U","NORAD_CAT_ID":55179,"ELEMENT_SET_NO":999,"REV_AT_EPOCH":15175,"BSTAR":4.7885e-5,"MEAN_MOTION_DOT":3.1e-7,"MEAN_MOTION_DDOT":0},{"OBJECT_NAME":"ONEWEB-0530","OBJECT_ID":"2023-029A","EPOCH":"2026-02-17T04:01:07.393152","MEAN_MOTION":13.20770484,"ECCENTRICITY":0.0001915,"INCLINATION":87.9196,"RA_OF_ASC_NODE":298.4379,"ARG_OF_PERICENTER":63.5521,"MEAN_ANOMALY":296.5808,"EPHEMERIS_TYPE":0,"CLASSIFICATION_TYPE":"U","NORAD_CAT_ID":55796,"ELEMENT_SET_NO":999,"REV_AT_EPOCH":14530,"BSTAR":0.00016498,"MEAN_MOTION_DOT":8.0e-7,"MEAN_MOTION_DDOT":0},{"OBJECT_NAME":"ONEWEB-0534","OBJECT_ID":"2023-029B","EPOCH":"2026-02-17T03:42:56.516256","MEAN_MOTION":13.20770689,"ECCENTRICITY":0.0001521,"INCLINATION":87.9197,"RA_OF_ASC_NODE":298.4392,"ARG_OF_PERICENTER":80.5419,"MEAN_ANOMALY":279.5887,"EPHEMERIS_TYPE":0,"CLASSIFICATION_TYPE":"U","NORAD_CAT_ID":55797,"ELEMENT_SET_NO":999,"REV_AT_EPOCH":14530,"BSTAR":0.00018891,"MEAN_MOTION_DOT":9.0e-7,"MEAN_MOTION_DDOT":0},{"OBJECT_NAME":"ONEWEB-0556","OBJECT_ID":"2023-029C","EPOCH":"2026-02-17T03:52:01.599168","MEAN_MOTION":13.20769939,"ECCENTRICITY":9.56e-5,"INCLINATION":87.9198,"RA_OF_ASC_NODE":298.4403,"ARG_OF_PERICENTER":53.7719,"MEAN_ANOMALY":306.3502,"EPHEMERIS_TYPE":0,"CLASSIFICATION_TYPE":"U","NORAD_CAT_ID":55798,"ELEMENT_SET_NO":999,"REV_AT_EPOCH":14530,"BSTAR":0.0001878,"MEAN_MOTION_DOT":8.9e-7,"MEAN_MOTION_DDOT":0},{"OBJECT_NAME":"ONEWEB-0562","OBJECT_ID":"2023-029D","EPOCH":"2026-02-17T03:33:51.134400","MEAN_MOTION":13.20770807,"ECCENTRICITY":0.0001813,"INCLINATION":87.9195,"RA_OF_ASC_NODE":298.423,"ARG_OF_PERICENTER":51.7234,"MEAN_ANOMALY":308.4062,"EPHEMERIS_TYPE":0,"CLASSIFICATION_TYPE":"U","NORAD_CAT_ID":55799,"ELEMENT_SET_NO":999,"REV_AT_EPOCH":14530,"BSTAR":0.00018177,"MEAN_MOTION_DOT":8.7e-7,"MEAN_MOTION_DDOT":0},{"OBJECT_NAME":"ONEWEB-0563","OBJECT_ID":"2023-029E","EPOCH":"2026-02-17T03:24:45.550368","MEAN_MOTION":13.20770769,"ECCENTRICITY":0.0001383,"INCLINATION":87.9198,"RA_OF_ASC_NODE":298.4546,"ARG_OF_PERICENTER":83.6002,"MEAN_ANOMALY":276.5289,"EPHEMERIS_TYPE":0,"CLASSIFICATION_TYPE":"U","NORAD_CAT_ID":55800,"ELEMENT_SET_NO":999,"REV_AT_EPOCH":14529,"BSTAR":0.00016942,"MEAN_MOTION_DOT":8.2e-7,"MEAN_MOTION_DDOT":0}]
